[{"OBJECT_NAME":"SITRO-AIS 28","OBJECT_ID":"2024-039U","EPOCH":"2026-03-09T22:53:08.846304","MEAN_MOTION":14.92876764,"ECCENTRICITY":0.01445021,"INCLINATION":95.3938,"RA_OF_ASC_NODE":167.1162,"ARG_OF_PERICENTER":314.581,"MEAN_ANOMALY":44.3693,"EPHEMERIS_TYPE":0,"CLASSIFICATION_TYPE":"U","NORAD_CAT_ID":59071,"ELEMENT_SET_NO":999,"REV_AT_EPOCH":10993,"BSTAR":0.0004111707,"MEAN_MOTION_DOT":5.19e-5,"MEAN_MOTION_DDOT":0},{"OBJECT_NAME":"STARLINK-35792","OBJECT_ID":"2025-298T","EPOCH":"2026-03-09T22:52:54.146208","MEAN_MOTION":14.99149972,"ECCENTRICITY":0.00026013,"INCLINATION":70.003,"RA_OF_ASC_NODE":13.9233,"ARG_OF_PERICENTER":243.077,"MEAN_ANOMALY":117.0124,"EPHEMERIS_TYPE":0,"CLASSIFICATION_TYPE":"U","NORAD_CAT_ID":67092,"ELEMENT_SET_NO":999,"REV_AT_EPOCH":1325,"BSTAR":0.00049307107,"MEAN_MOTION_DOT":5.921e-5,"MEAN_MOTION_DDOT":0}]
